[{"OBJECT_NAME":"YAOGAN-43 01D","OBJECT_ID":"2024-148D","EPOCH":"2026-03-09T10:27:16.254720","MEAN_MOTION":15.28369377,"ECCENTRICITY":0.00025569,"INCLINATION":35.001,"RA_OF_ASC_NODE":61.7102,"ARG_OF_PERICENTER":326.2473,"MEAN_ANOMALY":33.808,"EPHEMERIS_TYPE":0,"CLASSIFICATION_TYPE":"U","NORAD_CAT_ID":60461,"ELEMENT_SET_NO":999,"REV_AT_EPOCH":8700,"BSTAR":0.00037765912,"MEAN_MOTION_DOT":0.00010676,"MEAN_MOTION_DDOT":0},{"OBJECT_NAME":"STARLINK-34191","OBJECT_ID":"2025-113G","EPOCH":"2026-03-09T23:09:06.980832","MEAN_MOTION":15.30170826,"ECCENTRICITY":0.00012342,"INCLINATION":53.1596,"RA_OF_ASC_NODE":89.3978,"ARG_OF_PERICENTER":83.0235,"MEAN_ANOMALY":277.0906,"EPHEMERIS_TYPE":0,"CLASSIFICATION_TYPE":"U","NORAD_CAT_ID":64176,"ELEMENT_SET_NO":999,"REV_AT_EPOCH":4511,"BSTAR":0.00068593285,"MEAN_MOTION_DOT":0.00019993,"MEAN_MOTION_DDOT":0}]
